QB50P1                  
1 40025U 14033R   26197.60588384  .00004288  00000+0  21031-3 0  9990
2 40025  98.0963 210.8240 0010431 120.5690 239.6573 15.18678566657496
DTUSAT-2                
1 40030U 14033W   26197.55932197  .00003698  00000+0  19986-3 0  9995
2 40030  98.0876 197.1607 0009403 127.8682 232.3400 15.15361680657130
QB50P2                  
1 40032U 14033Y   26197.81483346  .00004129  00000+0  22169-3 0  9990
2 40032  98.0763 196.5493 0009278  79.3830 280.8446 15.15519045657159
PERSEUS-M1              
1 40039U 14033AF  26197.80692309  .00000949  00000+0  90612-4 0  9992
2 40039  97.9654 142.4284 0011012 190.7598 169.3388 14.95719308655064
POLYITAN-1              
1 40042U 14033AJ  26197.60603149  .00010814  00000+0  32851-3 0  9990
2 40042  98.0930 226.6719 0007762  60.1864 300.0148 15.34251009658107
TIGRISAT                
1 40043U 14033AK  26197.42245954  .00000694  00000+0  85612-4 0  9996
2 40043  97.7866 346.7713 0048535 340.2740  19.6596 14.85251528649963
CANX-4                  
1 40055U 14034C   26197.60341848  .00000383  00000+0  56366-4 0  9998
2 40055  98.3081  73.9913 0011386 277.7492  82.2427 14.81312483648888
CANX-5                  
1 40056U 14034D   26197.60150802  .00000384  00000+0  56538-4 0  9999
2 40056  98.3083  74.0347 0011389 278.0090  81.9829 14.81329842639693
GONETS-M 10             
1 40063U 14036C   26197.85297868 -.00000103  00000+0 -81784-3 0  9991
2 40063  82.5127 289.2497 0022935  79.0263 281.3395 12.42945753545938
METEOR-M 2              
1 40069U 14037A   26197.85010519 -.00000110  00000+0 -30927-4 0  9996
2 40069  98.5131 172.5410 0005068 321.4892  38.5924 14.21468905623536
DX1                     
1 40071U 14037C   26197.84185425  .00000722  00000+0  81285-4 0  9997
2 40071  98.3880 161.3475 0007245 165.3342 194.8085 14.90063113650520
UKUBE-1                 
1 40074U 14037F   26197.58322439  .00004241  00000+0  23819-3 0  9997
2 40074  98.4243 203.9543 0003243  85.4998 274.6601 15.13961725653008
GAOFEN-2                
1 40118U 14049A   26197.83824422 -.00000155  00000+0 -13075-4 0  9992
2 40118  98.0097 262.0151 0008333 129.6742 230.5206 14.80927528643629
BRITE-PL2 (HEWELIUSZ)   
1 40119U 14049B   26197.76279758  .00000479  00000+0  49566-4 0  9992
2 40119  97.9121 309.9960 0014180  17.0924 343.0771 14.94689118645864
CBERS 4                 
1 40336U 14079A   26197.86956354 -.00000156  00000+0 -39573-4 0  9992
2 40336  98.3516 253.7674 0000731  53.1488 306.9765 14.35515464608215
SMAP                    
1 40376U 15003A   26197.82334894  .00000166  00000+0  41165-4 0  9998
2 40376  98.1284 204.4992 0001611  94.2357 265.9029 14.63389880611958
GONETS-M 11             
1 40552U 15020A   26197.87295139  .00000015  00000+0  35441-4 0  9999
2 40552  82.4862  12.4893 0015352 299.3530  60.6016 12.42878676512426
GONETS-M 12             
1 40553U 15020B   26197.84612449 -.00000018  00000+0 -19874-3 0  9990
2 40553  82.4894  13.6377 0014236 283.2284  76.7207 12.42892007512413
GONETS-M 13             
1 40554U 15020C   26197.82010031  .00000025  00000+0  10717-3 0  9991
2 40554  82.4857  12.2604 0012800 267.0905  92.8710 12.42871986512383
DMC3-FM1                
1 40715U 15032A   26197.90552898  .00000472  00000+0  60262-4 0  9991
2 40715  97.6421  61.9096 0004731 331.0277  29.0675 14.85768320594323
DMC3-FM2                
1 40716U 15032B   26197.86011039  .00001003  00000+0  12134-3 0  9999
2 40716  97.6475  63.4602 0005364 337.0342  23.0634 14.85777522594317
DMC3-FM3                
1 40717U 15032C   26197.88365103  .00000184  00000+0  27058-4 0  9997
2 40717  97.6528  65.2549 0004640 339.3520  20.7508 14.85764541594328
CARBONITE 1 (CBNT-1)    
1 40718U 15032D   26197.85773593  .00001576  00000+0  19664-3 0  9990
2 40718  97.6516  14.6846 0013997 191.2666 168.8237 14.83673064593740
LILACSAT-2              
1 40908U 15049K   26197.86759664  .00011135  00000+0  18386-3 0  9995
2 40908  97.4622 235.8518 0008484 136.4706 223.7218 15.52397700600354
COSMOS 2507 (RODNIK-S *)
1 40920U 15050A   26197.85417130 -.00000044  00000+0 -38998-3 0  9999
2 40920  82.4903  61.1966 0008997 289.3587  70.6519 12.42927282490546
COSMOS 2508 (RODNIK-S *)
1 40921U 15050B   26197.88996502 -.00000002  00000+0 -85842-4 0  9993
2 40921  82.4856  59.6679 0013881 323.0471  36.9651 12.42915087490534
COSMOS 2509 (RODNIK-S *)
1 40922U 15050C   26197.83053487 -.00000006  00000+0 -11727-3 0  9999
2 40922  82.4864  59.8104 0014549 340.6473  19.4053 12.42884592490569
