OBJECT_NAME,OBJECT_ID,EPOCH,MEAN_MOTION,ECCENTRICITY,INCLINATION,RA_OF_ASC_NODE,ARG_OF_PERICENTER,MEAN_ANOMALY,EPHEMERIS_TYPE,CLASSIFICATION_TYPE,NORAD_CAT_ID,ELEMENT_SET_NO,REV_AT_EPOCH,BSTAR,MEAN_MOTION_DOT,MEAN_MOTION_DDOT
QB50P1,2014-033R,2026-07-16T14:32:28.363776,15.18678566,.0010431,98.0963,210.8240,120.5690,239.6573,0,U,40025,999,65749,.21031E-3,.4288E-4,0
DTUSAT-2,2014-033W,2026-07-16T13:25:25.418208,15.15361680,.0009403,98.0876,197.1607,127.8682,232.3400,0,U,40030,999,65713,.19986E-3,.3698E-4,0
QB50P2,2014-033Y,2026-07-16T19:33:21.610944,15.15519045,.0009278,98.0763,196.5493,79.3830,280.8446,0,U,40032,999,65715,.22169E-3,.4129E-4,0
PERSEUS-M1,2014-033AF,2026-07-16T19:21:58.154976,14.95719308,.0011012,97.9654,142.4284,190.7598,169.3388,0,U,40039,999,65506,.90612E-4,.949E-5,0
POLYITAN-1,2014-033AJ,2026-07-16T14:32:41.120736,15.34251009,.0007762,98.0930,226.6719,60.1864,300.0148,0,U,40042,999,65810,.32851E-3,.10814E-3,0
TIGRISAT,2014-033AK,2026-07-16T10:08:20.504256,14.85251528,.0048535,97.7866,346.7713,340.2740,19.6596,0,U,40043,999,64996,.85612E-4,.694E-5,0
CANX-4,2014-034C,2026-07-16T14:28:55.356672,14.81312483,.0011386,98.3081,73.9913,277.7492,82.2427,0,U,40055,999,64888,.56366E-4,.383E-5,0
CANX-5,2014-034D,2026-07-16T14:26:10.292928,14.81329842,.0011389,98.3083,74.0347,278.0090,81.9829,0,U,40056,999,63969,.56538E-4,.384E-5,0
GONETS-M 10,2014-036C,2026-07-16T20:28:17.357952,12.42945753,.0022935,82.5127,289.2497,79.0263,281.3395,0,U,40063,999,54593,-.81784E-3,-.103E-5,0
METEOR-M 2,2014-037A,2026-07-16T20:24:09.088416,14.21468905,.0005068,98.5131,172.5410,321.4892,38.5924,0,U,40069,999,62353,-.30927E-4,-.11E-5,0
DX1,2014-037C,2026-07-16T20:12:16.207200,14.90063113,.0007245,98.3880,161.3475,165.3342,194.8085,0,U,40071,999,65052,.81285E-4,.722E-5,0
UKUBE-1,2014-037F,2026-07-16T13:59:50.587296,15.13961725,.0003243,98.4243,203.9543,85.4998,274.6601,0,U,40074,999,65300,.23819E-3,.4241E-4,0
GAOFEN-2,2014-049A,2026-07-16T20:07:04.300608,14.80927528,.0008333,98.0097,262.0151,129.6742,230.5206,0,U,40118,999,64362,-.13075E-4,-.155E-5,0
BRITE-PL2 (HEWELIUSZ),2014-049B,2026-07-16T18:18:25.710912,14.94689118,.001418,97.9121,309.9960,17.0924,343.0771,0,U,40119,999,64586,.49566E-4,.479E-5,0
CBERS 4,2014-079A,2026-07-16T20:52:10.289856,14.35515464,.0000731,98.3516,253.7674,53.1488,306.9765,0,U,40336,999,60821,-.39573E-4,-.156E-5,0
SMAP,2015-003A,2026-07-16T19:45:37.348416,14.63389880,.0001611,98.1284,204.4992,94.2357,265.9029,0,U,40376,999,61195,.41165E-4,.166E-5,0
GONETS-M 11,2015-020A,2026-07-16T20:57:03.000096,12.42878676,.0015352,82.4862,12.4893,299.3530,60.6016,0,U,40552,999,51242,.35441E-4,.15E-6,0
GONETS-M 12,2015-020B,2026-07-16T20:18:25.155936,12.42892007,.0014236,82.4894,13.6377,283.2284,76.7207,0,U,40553,999,51241,-.19874E-3,-.18E-6,0
GONETS-M 13,2015-020C,2026-07-16T19:40:56.666784,12.42871986,.00128,82.4857,12.2604,267.0905,92.8710,0,U,40554,999,51238,.10717E-3,.25E-6,0
DMC3-FM1,2015-032A,2026-07-16T21:43:57.703872,14.85768320,.0004731,97.6421,61.9096,331.0277,29.0675,0,U,40715,999,59432,.60262E-4,.472E-5,0
DMC3-FM2,2015-032B,2026-07-16T20:38:33.537696,14.85777522,.0005364,97.6475,63.4602,337.0342,23.0634,0,U,40716,999,59431,.12134E-3,.1003E-4,0
DMC3-FM3,2015-032C,2026-07-16T21:12:27.448992,14.85764541,.000464,97.6528,65.2549,339.3520,20.7508,0,U,40717,999,59432,.27058E-4,.184E-5,0
CARBONITE 1 (CBNT-1),2015-032D,2026-07-16T20:35:08.384352,14.83673064,.0013997,97.6516,14.6846,191.2666,168.8237,0,U,40718,999,59374,.19664E-3,.1576E-4,0
LILACSAT-2,2015-049K,2026-07-16T20:49:20.349696,15.52397700,.0008484,97.4622,235.8518,136.4706,223.7218,0,U,40908,999,60035,.18386E-3,.11135E-3,0
COSMOS 2507 (RODNIK-S 13),2015-050A,2026-07-16T20:30:00.400320,12.42927282,.0008997,82.4903,61.1966,289.3587,70.6519,0,U,40920,999,49054,-.38998E-3,-.44E-6,0
COSMOS 2508 (RODNIK-S 14),2015-050B,2026-07-16T21:21:32.977728,12.42915087,.0013881,82.4856,59.6679,323.0471,36.9651,0,U,40921,999,49053,-.85842E-4,-.2E-7,0
COSMOS 2509 (RODNIK-S 15),2015-050C,2026-07-16T19:55:58.212768,12.42884592,.0014549,82.4864,59.8104,340.6473,19.4053,0,U,40922,999,49056,-.11727E-3,-.6E-7,0
